[{"OBJECT_NAME":"SHIYAN-1 (SY-1)","OBJECT_ID":"2004-012A","EPOCH":"2026-03-09T17:40:34.066560","MEAN_MOTION":15.31043463,"ECCENTRICITY":0.00058726,"INCLINATION":97.8764,"RA_OF_ASC_NODE":140.5238,"ARG_OF_PERICENTER":23.6952,"MEAN_ANOMALY":336.4557,"EPHEMERIS_TYPE":0,"CLASSIFICATION_TYPE":"U","NORAD_CAT_ID":28220,"ELEMENT_SET_NO":999,"REV_AT_EPOCH":19586,"BSTAR":0.00054854449,"MEAN_MOTION_DOT":0.00016393,"MEAN_MOTION_DDOT":0},{"OBJECT_NAME":"STARLINK-34430","OBJECT_ID":"2025-130U","EPOCH":"2026-03-09T08:13:16.279392","MEAN_MOTION":15.3020213,"ECCENTRICITY":0.00015182,"INCLINATION":53.1585,"RA_OF_ASC_NODE":89.8799,"ARG_OF_PERICENTER":88.3204,"MEAN_ANOMALY":271.7971,"EPHEMERIS_TYPE":0,"CLASSIFICATION_TYPE":"U","NORAD_CAT_ID":64456,"ELEMENT_SET_NO":999,"REV_AT_EPOCH":4065,"BSTAR":0.00074907411,"MEAN_MOTION_DOT":0.00021893,"MEAN_MOTION_DDOT":0}]
